{"type": "FeatureCollection", "features": [{"type": "Feature", "properties": {"norad_id": 50032, "name": "COSMOS 1408 DEB", "group": "cosmos-1408-debris", "lat": 28.95929585985206, "lon": -125.37503452049734, "alt_km": 422.780620113871, "timestamp": "2025-12-12T11:38:31.682468+00:00", "meta": {"OBJECT_NAME": "COSMOS 1408 DEB", "OBJECT_ID": "1982-092RU", "EPOCH": "2025-12-11T16:20:47.923872", "MEAN_MOTION": 15.45676652, "ECCENTRICITY": 0.00151449, "INCLINATION": 82.5641, "RA_OF_ASC_NODE": 59.5936, "ARG_OF_PERICENTER": 212.6008, "MEAN_ANOMALY": 147.4307, "EPHEMERIS_TYPE": 0, "CLASSIFICATION_TYPE": "U", "NORAD_CAT_ID": 50032, "ELEMENT_SET_NO": 999, "REV_AT_EPOCH": 22587, "BSTAR": 0.00015797469, "MEAN_MOTION_DOT": 7.691e-05, "MEAN_MOTION_DDOT": 0}, "tle": {"line1": "1 50032U 82092RU  25345.68111023  .00007691  00000+0  15797-3 0  9996", "line2": "2 50032  82.5641  59.5936 0015144 212.6008 147.4307 15.45676652225876"}}, "geometry": {"type": "Point", "coordinates": [-125.37503452049734, 28.95929585985206]}}, {"type": "Feature", "properties": {"norad_id": 50058, "name": "COSMOS 1408 DEB", "group": "cosmos-1408-debris", "lat": -24.308243057988406, "lon": 66.25052440428867, "alt_km": 387.28090357065867, "timestamp": "2025-12-12T11:38:31.682490+00:00", "meta": {"OBJECT_NAME": "COSMOS 1408 DEB", "OBJECT_ID": "1982-092SW", "EPOCH": "2025-12-11T06:34:19.152192", "MEAN_MOTION": 15.63964775, "ECCENTRICITY": 0.00160129, "INCLINATION": 82.6138, "RA_OF_ASC_NODE": 70.8772, "ARG_OF_PERICENTER": 102.2436, "MEAN_ANOMALY": 258.0617, "EPHEMERIS_TYPE": 0, "CLASSIFICATION_TYPE": "U", "NORAD_CAT_ID": 50058, "ELEMENT_SET_NO": 999, "REV_AT_EPOCH": 22781, "BSTAR": 0.00053909325, "MEAN_MOTION_DOT": 0.00051314, "MEAN_MOTION_DDOT": 0}, "tle": {"line1": "1 50058U 82092SW  25345.27383278  .00051314  00000+0  53909-3 0  9990", "line2": "2 50058  82.6138  70.8772 0016012 102.2436 258.0617 15.63964775227819"}}, "geometry": {"type": "Point", "coordinates": [66.25052440428867, -24.308243057988406]}}, {"type": "Feature", "properties": {"norad_id": 50404, "name": "COSMOS 1408 DEB", "group": "cosmos-1408-debris", "lat": 49.21535327303417, "lon": 26.155679865068464, "alt_km": 477.4700675108379, "timestamp": "2025-12-12T11:38:31.682503+00:00", "meta": {"OBJECT_NAME": "COSMOS 1408 DEB", "OBJECT_ID": "1982-092ADS", "EPOCH": "2025-12-12T01:32:19.955040", "MEAN_MOTION": 15.1364179, "ECCENTRICITY": 0.0172045, "INCLINATION": 82.2033, "RA_OF_ASC_NODE": 215.7253, "ARG_OF_PERICENTER": 201.2162, "MEAN_ANOMALY": 158.1879, "EPHEMERIS_TYPE": 0, "CLASSIFICATION_TYPE": "U", "NORAD_CAT_ID": 50404, "ELEMENT_SET_NO": 999, "REV_AT_EPOCH": 21183, "BSTAR": 0.0035622, "MEAN_MOTION_DOT": 0.00093542, "MEAN_MOTION_DDOT": 0}, "tle": {"line1": "1 50404U 82092ADS 25346.06411985  .00093542  00000+0  35622-2 0  9990", "line2": "2 50404  82.2033 215.7253 0172045 201.2162 158.1879 15.13641790211832"}}, "geometry": {"type": "Point", "coordinates": [26.155679865068464, 49.21535327303417]}}, {"type": "Feature", "properties": {"norad_id": 50621, "name": "COSMOS 1408 DEB", "group": "cosmos-1408-debris", "lat": -1.3759535156307796, "lon": 74.26568027890205, "alt_km": 418.32678168867005, "timestamp": "2025-12-12T11:38:31.682515+00:00", "meta": {"OBJECT_NAME": "COSMOS 1408 DEB", "OBJECT_ID": "1982-092ALR", "EPOCH": "2025-12-11T12:30:20.156832", "MEAN_MOTION": 15.56564652, "ECCENTRICITY": 0.0028861, "INCLINATION": 82.57, "RA_OF_ASC_NODE": 75.4488, "ARG_OF_PERICENTER": 157.0202, "MEAN_ANOMALY": 203.2351, "EPHEMERIS_TYPE": 0, "CLASSIFICATION_TYPE": "U", "NORAD_CAT_ID": 50621, "ELEMENT_SET_NO": 999, "REV_AT_EPOCH": 22231, "BSTAR": 0.00065091593, "MEAN_MOTION_DOT": 0.00047317, "MEAN_MOTION_DDOT": 0}, "tle": {"line1": "1 50621U 82092ALR 25345.52106663  .00047317  00000+0  65092-3 0  9999", "line2": "2 50621  82.5700  75.4488 0028861 157.0202 203.2351 15.56564652222317"}}, "geometry": {"type": "Point", "coordinates": [74.26568027890205, -1.3759535156307796]}}]}